61785,RTU MIREA 1 (RS51S),2024,93.88,-1.0,+,97.36,Active,0,LEO,Russia,Russia/USSR,Unknown,Unknown,Unknown,1 61785U 24199BC  25158.91358724  .00014940  00000+0  45712-3 0  9991,2 61785  97.3548  27.4918 0014209 191.8168 168.2744 15.33837287 76682,15.33837287,0.0014209,LEO
62690,HADES-R,2025,94.18,-1.0,+,97.41,Active,0,LEO,USA,Spain,Unknown,Unknown,Unknown,1 62690U 25009CK  25157.73051245  .00025255  00000+0  89801-3 0  9993,2 62690  97.4096 238.5468 0004408 115.8282 244.3413 15.28968798 21714,15.28968798,0.0004408,LEO
63492,HADES-ICM,2025,94.57,-1.0,+,97.43,Active,0,LEO,USA,Spain,Unknown,Unknown,Unknown,1 63492U 25052BN  25157.66924166  .00019239  00000+0  82579-3 0  9995,2 63492  97.4329  51.7981 0013241  35.5572 324.6544 15.22672230 12819,15.2267223,0.0013241,LEO
