[
  {
    "OBJECT_NAME": "RTU MIREA 1 (RS51S)",
    "OBJECT_ID": "2024-199BC",
    "EPOCH": "2025-06-07T21:55:33.937536",
    "MEAN_MOTION": 15.33837287,
    "ECCENTRICITY": 0.0014209,
    "INCLINATION": 97.3548,
    "RA_OF_ASC_NODE": 27.4918,
    "ARG_OF_PERICENTER": 191.8168,
    "MEAN_ANOMALY": 168.2744,
    "EPHEMERIS_TYPE": 0,
    "CLASSIFICATION_TYPE": "U",
    "NORAD_CAT_ID": 61785,
    "ELEMENT_SET_NO": 999,
    "REV_AT_EPOCH": 7668,
    "BSTAR": 0.00045712,
    "MEAN_MOTION_DOT": 0.0001494,
    "MEAN_MOTION_DDOT": 0
  },
  {
    "OBJECT_NAME": "HADES-R",
    "OBJECT_ID": "2025-009CK",
    "EPOCH": "2025-06-06T17:31:56.275680",
    "MEAN_MOTION": 15.28968798,
    "ECCENTRICITY": 0.0004408,
    "INCLINATION": 97.4096,
    "RA_OF_ASC_NODE": 238.5468,
    "ARG_OF_PERICENTER": 115.8282,
    "MEAN_ANOMALY": 244.3413,
    "EPHEMERIS_TYPE": 0,
    "CLASSIFICATION_TYPE": "U",
    "NORAD_CAT_ID": 62690,
    "ELEMENT_SET_NO": 999,
    "REV_AT_EPOCH": 2171,
    "BSTAR": 0.00089801,
    "MEAN_MOTION_DOT": 0.00025255,
    "MEAN_MOTION_DDOT": 0
  },
  {
    "OBJECT_NAME": "HADES-ICM",
    "OBJECT_ID": "2025-052BN",
    "EPOCH": "2025-06-06T16:03:42.479424",
    "MEAN_MOTION": 15.2267223,
    "ECCENTRICITY": 0.0013241,
    "INCLINATION": 97.4329,
    "RA_OF_ASC_NODE": 51.7981,
    "ARG_OF_PERICENTER": 35.5572,
    "MEAN_ANOMALY": 324.6544,
    "EPHEMERIS_TYPE": 0,
    "CLASSIFICATION_TYPE": "U",
    "NORAD_CAT_ID": 63492,
    "ELEMENT_SET_NO": 999,
    "REV_AT_EPOCH": 1281,
    "BSTAR": 0.00082579,
    "MEAN_MOTION_DOT": 0.00019239,
    "MEAN_MOTION_DDOT": 0
  }
]